#aV2010 10  3  0  0   .00000000      96 DD+AD WGS84 FIT  NGA
## 1604       .00000000   900.00000000 55472  .0000000000000
+   32     1  2  3  4  5  6  7  8  9 10 11 12 13 14 15 16 17
+         18 19 20 21 22 23 24 25 26 27 28 29 30 31 32  0  0
+          0  0  0  0  0  0  0  0  0  0  0  0  0  0  0  0  0
+          0  0  0  0  0  0  0  0  0  0  0  0  0  0  0  0  0
+          0  0  0  0  0  0  0  0  0  0  0  0  0  0  0  0  0
++         0  0  0  0  0  0  0  0  0  0  0  0  0  0  0  0  0
++         0  0  0  0  0  0  0  0  0  0  0  0  0  0  0  0  0
++         0  0  0  0  0  0  0  0  0  0  0  0  0  0  0  0  0
++         0  0  0  0  0  0  0  0  0  0  0  0  0  0  0  0  0
++         0  0  0  0  0  0  0  0  0  0  0  0  0  0  0  0  0
%c cc cc ccc ccc cccc cccc cccc cccc ccccc ccccc ccccc ccccc
%c cc cc ccc ccc cccc cccc cccc cccc ccccc ccccc ccccc ccccc
%f  0.0000000  0.000000000  0.00000000000  0.000000000000000
%f  0.0000000  0.000000000  0.00000000000  0.000000000000000
%i    0    0    0    0      0      0      0      0         0
%i    0    0    0    0      0      0      0      0         0
/*      NGA, ST. LOUIS,MO.                                  
/*   EPHEMERIS COMPUTED FROM  3 DAYS OF DATA                
/* CCCCCCCCCCCCCCCCCCCCCCCCCCCCCCCCCCCCCCCCCCCCCCCCCCCCCCCCC
/* CCCCCCCCCCCCCCCCCCCCCCCCCCCCCCCCCCCCCCCCCCCCCCCCCCCCCCCCC
*  2010 10  3  0 15   .00000000                                                 
P  1  -9523.933651  13198.973928  20844.412651   -168.506603                    
V  1 -12686.082415 -23570.263703   9198.774376      -.037966                    
P  2  11492.526011 -13698.016888  19492.667674    292.775542                    
V  2  24862.743988   2884.273333 -13095.854853       .026798                    
P  3  -8287.836449  24640.626438  -4866.926234    616.356527                    
V  3  -6174.527182   3379.698534  30388.952314       .051007                    
P  4  22674.528696  -7262.970663  11950.063673    184.350256                    
V  4  15164.982820   3708.251773 -25757.064779       .093583                    
P  5   -270.903212 -22569.474162  13915.399793    -45.410255                    
V  5   9990.292898  14836.622652  24328.846707      -.058296                    
P  6 -13445.262142  22791.853190   -140.917137    470.560352                    
V  6  -3448.795561  -1617.928442  31284.186683      -.145660                    
P  7  25152.260404   6118.712443   6395.345480     -1.599918                    
V  7  -8202.549564   1600.060419  30513.736793       .001706                    
P  8  26275.991590     62.809774  -5552.037632      6.818527                    
V  8   6681.612822   2191.662070  31109.080715       .000563                    
P  9  -9752.186051 -14241.339112 -20736.796330     34.070428                    
V  9  25058.505843    292.107532 -12296.999719       .022486                    
P 10  11234.538271 -11315.333544  20998.039559    -54.124046                    
V 10  12272.061377  24288.740673   6815.507523      -.011494                    
P 11  15755.112162  12098.490549 -18070.869986    -93.799846                    
V 11 -21812.286078   6158.839865 -14764.348201      -.026713                    
P 12 -11710.533516 -23930.500384    311.744020    -67.197291                    
V 12   1954.542782  -1328.388093 -31897.181055       .036508                    
P 13  13743.533054   5640.324694  21889.263986    295.925269                    
V 13 -17015.352901  22266.537456   4868.290589      -.010016                    
P 14 -19614.581958  12911.358193 -12113.299920     94.350389                    
V 14   7843.024716 -13660.081523 -27053.902070       .036070                    
P 15    902.823727 -21590.148570 -15339.164633   -201.054154                    
V 15  12493.303721 -15251.106399  22302.476534       .050513                    
P 16  -5066.532536  18617.422473  18156.519089   -113.868341                    
V 16 -10980.222218 -20343.170822  18093.593984      -.033849                    
P 17  19590.185990 -10341.936910 -14382.849764    172.895355                    
V 17  -8800.222740  16475.301187 -23870.351639       .013132                    
P 18 -18106.685535 -11487.062856 -15614.894599     96.566724                    
V 18  -6529.990710 -19342.621321  21023.472426       .022284                    
P 19  -2498.532094  21055.071222 -15780.246826    -70.928809                    
V 19 -14245.690486  14485.765770  21884.109743      -.032231                    
P 20  13028.236653  23170.013926    702.936693     50.573057                    
V 20  -2644.202481   2613.150317 -31127.380558      -.003359                    
P 21 -26134.799071  -5090.310640   4167.417107    -92.389624                    
V 21   5003.709181  -2694.275280  30137.697511      -.027004                    
P 22 -16145.793476   1887.951653 -20845.086880    161.746293                    
V 22 -10721.614201 -24744.868821   5918.242664      -.007318                    
P 23   6977.248619  15063.101423  20647.397266    350.881437                    
V 23 -15649.908640  21162.778696 -10476.452038      -.019052                    
P 24  -4733.907573  14883.680856 -21407.622502    326.816863                    
V 24 -27144.166863  -3669.626938   3694.703441       .032740                    
P 25 -17181.635087 -17230.694643  10612.091048    -43.782993                    
V 25  -3962.676490 -13153.764625 -27726.875151      -.017523                    
P 26  10378.978911 -22794.466165  -8721.093941    -22.218213                    
V 26   7902.198650  -7010.769206  30057.957807      -.073097                    
P 27  -3770.022927 -14384.433793 -21351.753415    194.565203                    
V 27  28666.333953     99.406464  -4770.390311       .033858                    
P 28  16320.706616   2309.882177 -20406.388520     -1.236650                    
V 28  10310.454631  24880.449210  10531.535459       .015889                    
P 29 -13539.496004  -7208.789499  21761.067264    153.523759                    
V 29  15806.036564 -22435.045956   2450.805151       .027575                    
P 30 -17759.897813 -16070.627836  11107.164275    283.672758                    
V 30  -4819.076782 -14164.500456 -27146.709327       .034394                    
P 31 -20364.250344   8702.214221  15003.319239     -4.228073                    
V 31 -18429.563622  -2779.805675 -23557.667820       .032956                    
P 32   7100.679109  25469.201405  -3780.734941    -99.400848                    
V 32  -4312.340026  -3851.747404 -30960.749698      -.089057                    
EOF
